STARLINK-32106          
1 59690U 24086J   26068.38247086 -.00000863  00000+0 -21801-4 0  9993
2 59690  43.0082  53.9773 0003113 282.9048  77.1456 15.27572207104152
FLOCK 4G-18             
1 62680U 25009BZ  26068.19114186  .00011766  00000+0  44319-3 0  9995
2 62680  97.4054 150.5008 0004100 335.7331  24.3715 15.27241676121267
